BEESAT-4                
1 41619U 16040W   23079.73419940  .00064940  00000+0  12935-2 0  9994
2 41619  97.1734 129.3858 0007277 189.2637 170.8480 15.46653651363146
RAVAN                   
1 41849U 16067B   23079.66254850  .00009799  00000+0  70603-3 0  9995
2 41849  98.0233 230.5617 0017754 125.4537 234.8348 15.04265874347455
CELTEE 1                
1 41850U 16067C   23079.36367166  .00006491  00000+0  51868-3 0  9997
2 41850  98.0391 224.2772 0005418 168.4155 191.7193 15.00592556347096
OPTICUBE 04             
1 41851U 16067D   23079.38300803  .00004006  00000+0  33444-3 0  9995
2 41851  98.0287 222.8672 0008430 146.5877 213.5879 14.99136965347021
AEROCUBE 8D             
1 41852U 16067E   23079.62024395  .00008125  00000+0  64419-3 0  9994
2 41852  98.0409 223.5037 0004843 157.8097 202.3337 15.00808421347070
AEROCUBE 8C             
1 41853U 16067F   23079.34034893  .00008202  00000+0  65105-3 0  9997
2 41853  98.0301 222.9611 0008350 100.2074 260.0091 15.00744763347028
PROMETHEUS 2-1          
1 41854U 16067G   23079.65393738  .00012529  00000+0  91669-3 0  9999
2 41854  98.0543 225.5901 0018542 151.8736 208.3494 15.03606958347173
PROMETHEUS 2-3          
1 41855U 16067H   23079.64609114  .00012415  00000+0  91014-3 0  9995
2 41855  98.0451 225.5362 0015689 161.4622 198.7177 15.03576022347171
INS-1B                  
1 41954U 17008G   23079.66583156  .00054508  00000+0  11215-2 0  9993
2 41954  97.2143 140.1097 0003959 319.0270  41.0682 15.45770780339157
DIDO-2                  
1 42000U 17008BE  23079.68849451  .00024931  00000+0  71720-3 0  9996
2 42000  97.2150 137.3482 0005801   6.0223 354.1090 15.35757914338336
PEASSS                  
1 42015U 17008BV  23079.72482984  .00043585  00000+0  96558-3 0  9993
2 42015  97.2216 143.3825 0002808 347.8277  12.2903 15.43642121339172
AL-FARABI 1             
1 42016U 17008BW  23079.42909821  .00087932  00000+0  13444-2 0  9991
2 42016  97.2279 148.4216 0001702 299.6879  60.4205 15.54091656339540
NAYIF-1 (EO-88)         
1 42017U 17008BX  23079.14004477  .00084128  00000+0  12611-2 0  9993
2 42017  97.2257 148.2171 0001974 309.5601  50.5479 15.54649810339533
UCLSAT                  
1 42765U 17036A   23079.83602063  .00049557  00000+0  11490-2 0  9996
2 42765  97.1570 119.8970 0008239  63.6212 296.5881 15.42220611320224
LITUANICASAT-2          
1 42768U 17036D   23079.66070212  .00851670  00000+0  28923-2 0  9991
2 42768  97.1502 128.2902 0002254 269.4380  90.6634 15.87874044319977
AALTO-1                 
1 42775U 17036L   23079.60956090  .00018718  00000+0  60674-3 0  9998
2 42775  97.1644 112.3687 0012479  70.1183 290.1402 15.31961958318940
URSA MAIOR              
1 42776U 17036M   23079.83229381  .00025261  00000+0  78342-3 0  9992
2 42776  97.1651 113.6961 0011842  67.6865 292.5632 15.33324379319033
COMPASS 2               
1 42777U 17036N   23079.72868982  .00116134  00000+0  17154-2 0  9990
2 42777  97.1605 124.3540 0005003  49.2329 310.9359 15.54926240319655
DIAMOND RED             
1 42783U 17036U   23079.83652807  .00029165  00000+0  84083-3 0  9999
2 42783  97.1641 116.6814 0010049  71.1445 289.0888 15.35624201319215
PEGASUS                 
1 42784U 17036V   23079.34427432  .00039969  00000+0  10031-2 0  9994
2 42784  97.1616 118.2440 0009087  67.3166 292.9040 15.39862176319276
DIAMOND GREEN           
1 42785U 17036W   23079.81679948  .00031799  00000+0  90094-3 0  9999
2 42785  97.1638 116.7732 0009840  73.4665 286.7660 15.36154597319207
DIAMOND BLUE            
1 42786U 17036X   23079.82346735  .00030711  00000+0  87645-3 0  9997
2 42786  97.1638 116.7574 0010113  71.9204 288.3142 15.35932349319200
NUDTSAT                 
1 42787U 17036Y   23079.90859476  .00140226  00000+0  17529-2 0  9994
2 42787  97.1588 126.5006 0003796  62.7404 297.4246 15.59349449319680
SUCHAI                  
1 42788U 17036Z   23079.66996741  .00058026  00000+0  12128-2 0  9991
2 42788  97.1596 121.3619 0007306  62.5770 297.6222 15.45273621319575
SKCUBE                  
1 42789U 17036AA  23079.64565380  .00043965  00000+0  10094-2 0  9997
2 42789  97.1606 120.2629 0007982  63.3684 296.8380 15.42544777319420
VZLUSAT-1               
1 42790U 17036AB  23079.85057209  .00136658  00000+0  17771-2 0  9999
2 42790  97.1568 126.2679 0003747  53.5071 306.6530 15.58310311319818
ROBUSTA 1B              
1 42792U 17036AD  23079.37222591  .00053138  00000+0  11434-2 0  9997
2 42792  97.1593 120.9176 0007231  64.3434 295.8561 15.44438253319450
CICERO 6                
1 42793U 17036AE  23079.66407431  .00024835  00000+0  74078-3 0  9994
2 42793  97.1628 116.8406 0009120  72.3175 287.9064 15.34592517319307
CORVUS BC2              
1 42846U 17042X   23079.81407042  .00002802  00000+0  26656-3 0  9994
2 42846  97.3949 286.1547 0009805 142.9988 217.1911 14.94143830309521
CORVUS BC1              
1 42847U 17042Y   23079.60985291  .00002884  00000+0  27355-3 0  9996
2 42847  97.3950 286.3079 0009554 141.9854 218.2043 14.94243179309501
MIRATA                  
1 43015U 17073C   23079.65709371  .00015764  00000+0  10344-2 0  9996
2 43015  97.6462 330.1226 0219580 350.0131   9.6756 14.90018083288290
MAKERSAT 0              
1 43016U 17073D   23079.65991857  .00014168  00000+0  97921-3 0  9993
2 43016  97.6462 328.7622 0232152 357.6262   2.3832 14.86487160288153
CORVUS BC3              
1 43118U 18004H   23079.77932734  .00021070  00000+0  63162-3 0  9993
2 43118  97.3310 154.4463 0008979 105.1887 255.0350 15.34471713288466
MICROMAS-2A             
1 43131U 18004W   23079.75575617  .00523608  00000+0  24328-2 0  9993
2 43131  97.3335 168.8045 0004366 277.5839  82.4933 15.82044833289305
CICERO 7                
1 43143U 18004AJ  23079.75697259  .00039733  00000+0  80565-3 0  9990
2 43143  97.3480 164.6411 0005057  99.1592 261.0230 15.46266656289058
GOMX-4B                 
1 43196U 18015E   23079.67959670  .00020272  00000+0  63228-3 0  9994
2 43196  97.5653 228.1931 0015817 160.1076 200.0785 15.33140966285374
GOMX-4A                 
1 43197U 18015F   23079.94605604  .00025171  00000+0  71939-3 0  9991
2 43197  97.5633 230.1473 0015707 156.4634 328.6597 15.35858817285532
AEROCUBE 12A            
1 43556U 18046C   23079.74592017  .00147638  00000+0  14161-2 0  9991
2 43556  51.6250 260.5052 0008206 284.3701  75.6383 15.65603098262099
AEROCUBE 12B            
1 43557U 18046D   23079.76880764  .00074977  00000+0  10844-2 0  9992
2 43557  51.6311 273.3217 0006657 281.6321  78.3923 15.55214384261879
CUBEBEL-1 (BSUSAT-1)    
1 43666U 18083E   23079.91341730  .00031939  00000+0  10194-2 0  9995
2 43666  97.3930 111.3105 0012471  80.9519  40.3298 15.32353007243652
CICERO 10               
1 43690U 18088A   23079.61311018  .00021853  00000+0  69488-3 0  9995
2 43690  85.0321 132.2917 0011765 192.3431 167.7530 15.32417785241910
PROXIMA I               
1 43694U 18088E   23079.84189617  .00024579  00000+0  72925-3 0  9990
2 43694  85.0251 128.0870 0015839 160.1045 200.0825 15.34556059242219
PROXIMA II              
1 43696U 18088G   23079.84974840  .00024323  00000+0  72343-3 0  9993
2 43696  85.0255 128.1189 0015968 160.0438 200.1439 15.34477284242200
FACSAT-1                
1 43721U 18096C   23079.88153855  .00132340  00000+0  14982-2 0  9993
2 43721  97.3171 167.2699 0008227 145.9176 307.1344 15.61946087240633
SIRION PATHFINDER-2     
1 43759U 18099B   23079.70766401  .00004697  00000+0  40178-3 0  9995
2 43759  97.5821 143.9221 0014083  58.4531 301.8065 14.98004797234377
CORVUS BC4              
1 43767U 18099K   23079.70468419  .00004828  00000+0  41942-3 0  9998
2 43767  97.5772 142.0112 0012027  65.6907 294.5570 14.97407478234284
MOVE-II                 
1 43780U 18099Y   23079.41525882  .00012031  00000+0  92823-3 0  9998
2 43780  97.5786 145.4131 0011306  93.9145 266.3373 15.01675620234403
SPACEBEE-7              
1 43816U 18099BL  23079.73503792  .00010491  00000+0  82619-3 0  9999
2 43816  97.5978 146.3807 0015284  39.9921 320.2426 15.00888294234037
SPACEBEE-5              
1 43817U 18099BM  23079.42394927  .00034961  00000+0  20887-2 0  9990
2 43817  97.6005 151.6543 0003493  49.9041 310.2494 15.10995183234265
SPACEBEE-6              
1 43818U 18099BN  23079.66970615  .00015964  00000+0  11713-2 0  9991
2 43818  97.5988 148.0278 0012663  59.0946 301.1523 15.03504608234256
SHIELDS 1               
1 43850U 18104B   23079.66347683  .00010507  00000+0  39593-3 0  9992
2 43850  85.0271 228.5722 0012542 332.0900  27.9670 15.26862848236590
STF-1                   
1 43852U 18104D   23079.64836941  .00040355  00000+0  11250-2 0  9995
2 43852  85.0262 227.4664 0011276 330.8255  29.2364 15.36534649236778
ZACUBE-2                
1 43907U 18111AH  23079.95083679  .00028260  00000+0  81280-3 0  9992
2 43907  97.1543 321.8653 0017178 166.4421 321.7591 15.35606698235580
LUME 1                  
1 43908U 18111AJ  23079.65726868  .00034692  00000+0  85638-3 0  9991
2 43908  97.1550 324.5185 0015272 154.0594 206.1421 15.40317008235731
AOBA VELOX-IV           
1 43940U 19003J   23079.82476775  .01563901  15716-2  23849-2 0  9995
2 43940  97.0591 116.9154 0008868 231.4401 128.6086 16.04769627232933
MOVE-IIB                
1 44398U 19038N   23079.44463870  .00044038  00000+0  14406-2 0  9991
2 44398  97.6576  58.6575 0012847 239.9578 120.0388 15.31488288205042
SONATE                  
1 44400U 19038Q   23079.37726885  .00013294  00000+0  63305-3 0  9998
2 44400  97.6763  55.3726 0019072 259.5156 100.3929 15.19111851204746
LUCKY-7                 
1 44406U 19038W   23079.73542393  .00018615  00000+0  83321-3 0  9996
2 44406  97.6741  56.7101 0017509 253.1015 106.8301 15.21194224204863
BEESAT 9                
1 44412U 19038AC  23079.65952213  .00026506  00000+0  10533-2 0  9992
2 44412  97.6692  57.7242 0013800 252.9653 107.0072 15.25201195204641
